GLOBALSTAR M063 [+]     
1 26081U 00008A   23237.83369677 -.00000085  00000+0 -35137-4 0  9998
2 26081  51.9958  53.2951 0005209 120.2934 348.1697 11.86143735 79090
GLOBALSTAR M062 [-]     
1 26082U 00008B   23237.95712309 -.00000054  00000+0  31752-3 0  9999
2 26082  51.9820 240.1744 0006887 140.1002 235.0217 12.43409970414361
GLOBALSTAR M069 [+]     
1 31573U 07020C   23237.64065284 -.00000097  00000+0  37411-4 0  9996
2 31573  51.9963  35.9153 0001462  94.1183 346.2841 12.62267241751003
GLOBALSTAR M072 [+]     
1 31574U 07020D   23237.87328222 -.00000119  00000+0 -82730-4 0  9996
2 31574  52.0081 130.8784 0000988  22.1316  56.0194 12.62264920749301
GLOBALSTAR M071 [P]     
1 31576U 07020F   23237.91367095 -.00000091  00000+0  73591-4 0  9997
2 31576  52.0079  40.0171 0001860  93.3619  28.3730 12.62266762412220
